0 DELTA 1 DEB
1 26839U 75052KT  13281.32842743  .00000119  00000-0  33937-3 0  9017
2 26839 099.8062 308.9211 0084512 108.9892 308.8057 13.29421842 50355
0 DELTA 1 DEB
1 26839U 75052KT  13282.55250138  .00000126  00000-0  35361-3 0  9026
2 26839 099.8060 310.0835 0084487 106.0976 047.0966 13.29422384 50513
0 DELTA 1 DEB
1 26839U 75052KT  13284.03195781  .00000156  00000-0  41658-3 0  9033
2 26839 099.8057 311.4883 0084453 102.5979 287.6284 13.29422775 50715
0 DELTA 1 DEB
1 26839U 75052KT  13285.31844973  .00000142  00000-0  38765-3 0  9040
2 26839 099.8054 312.7100 0084423 099.5532 324.6545 13.29423219 50889
0 DELTA 1 DEB
1 26839U 75052KT  13286.54259098  .00000142  00000-0  38730-3 0  9057
2 26839 099.8050 313.8723 0084397 096.6550 063.2795 13.29423708 51041
0 DELTA 1 DEB
1 26839U 75052KT  13288.02089851  .00000184  00000-0  47666-3 0  9065
2 26839 099.8047 315.2760 0084355 093.1478 298.3292 13.29424560 51241
0 DELTA 1 DEB
1 26839U 75052KT  13289.30661001  .00000141  00000-0  38599-3 0  9079
2 26839 099.8045 316.4966 0084314 090.1004 331.6330 13.29425207 51419
0 DELTA 1 DEB
1 26839U 75052KT  13291.33827727  .00000138  00000-0  37870-3 0  9082
2 26839 099.8043 318.4253 0084249 085.2840 335.0219 13.29426069 51688
0 DELTA 1 DEB
1 26839U 75052KT  13292.93113694  .00000153  00000-0  41065-3 0  9099
2 26839 099.8043 319.9374 0084200 081.5042 038.3244 13.29426571 51890
0 DELTA 1 DEB
1 26839U 75052KT  13294.04114641  .00000148  00000-0  40038-3 0  9101
2 26839 099.8043 320.9911 0084161 078.8671 310.7472 13.29427151 52045
0 DELTA 1 DEB
1 26839U 75052KT  13295.32632299  .00000160  00000-0  42697-3 0  9115
2 26839 099.8043 322.2111 0084116 075.8128 341.5106 13.29427643 52217
